[{"OBJECT_NAME":"STARLINK-31632","OBJECT_ID":"2024-057G","EPOCH":"2026-03-09T09:25:25.151808","MEAN_MOTION":15.27596218,"ECCENTRICITY":0.00013869,"INCLINATION":42.9986,"RA_OF_ASC_NODE":199.994,"ARG_OF_PERICENTER":285.8027,"MEAN_ANOMALY":74.2672,"EPHEMERIS_TYPE":0,"CLASSIFICATION_TYPE":"U","NORAD_CAT_ID":59326,"ELEMENT_SET_NO":999,"REV_AT_EPOCH":10966,"BSTAR":-0.00011518227,"MEAN_MOTION_DOT":-3.432e-5,"MEAN_MOTION_DDOT":0},{"OBJECT_NAME":"FLOCK 4G-6","OBJECT_ID":"2025-009BD","EPOCH":"2026-03-09T17:03:16.973568","MEAN_MOTION":15.27432125,"ECCENTRICITY":0.00023795,"INCLINATION":97.398,"RA_OF_ASC_NODE":150.7943,"ARG_OF_PERICENTER":348.2637,"MEAN_ANOMALY":11.8546,"EPHEMERIS_TYPE":0,"CLASSIFICATION_TYPE":"U","NORAD_CAT_ID":62660,"ELEMENT_SET_NO":999,"REV_AT_EPOCH":12130,"BSTAR":0.00045909501,"MEAN_MOTION_DOT":0.00012261,"MEAN_MOTION_DDOT":0}]
